COSMOS 2425 (716)       
1 29670U 06062A   18356.55621318 -.00000003  00000-0  10000-3 0  9990
2 29670  65.1902 286.1662 0022686 342.4080 241.4916  2.13104974 93320
COSMOS 2426 (717)       
1 29671U 06062B   18356.73040826 -.00000002  00000-0  10000-3 0  9999
2 29671  65.2074 286.2623 0016752 170.3765  41.5702  2.13103114 93333
COSMOS 2433 (720)       
1 32275U 07052A   18356.85569816 -.00000022  00000-0  10000-3 0  9993
2 32275  65.7754  47.0386 0004493 248.5867  35.6704  2.13104556 86841
COSMOS 2432 (719)       
1 32276U 07052B   18357.10532948 -.00000022  00000-0  10000-3 0  9999
2 32276  65.7873  47.1123 0010775 322.3303 104.9253  2.13103767 86853
COSMOS 2434 (721)       
1 32393U 07065A   18356.51816053 -.00000002  00000-0  00000+0 0  9992
2 32393  64.8048 285.0543 0002033 103.7049 169.2330  2.13102992 85546
COSMOS 2436 (723)       
1 32395U 07065C   18357.25372205  .00000001  00000-0  10000-3 0  9995
2 32395  64.8145 285.0810 0016287 354.8321 173.8290  2.13104320 85498
COSMOS 2456 (730)       
1 36111U 09070A   18356.63791301  .00000090  00000-0  00000-0 0  9990
2 36111  64.1924 164.6613 0002984 352.2327 185.3320  2.13102958 70217
COSMOS 2457 (733)       
1 36112U 09070B   18357.11605116  .00000086  00000-0  00000+0 0  9997
2 36112  64.1761 164.5514 0006950 147.1909 163.1070  2.13101589 70226
COSMOS 2458 (734)       
1 36113U 09070C   18356.73511204  .00000089  00000-0  10000-3 0  9997
2 36113  64.1794 164.5776 0003280  53.6106   6.4234  2.13091681 70228
COSMOS 2459 (731)       
1 36400U 10007A   18356.57834252 -.00000022  00000-0  10000-3 0  9999
2 36400  65.6820  46.0881 0025540 347.4627 301.3825  2.13102142 68561
COSMOS 2461 (735)       
1 36401U 10007B   18357.45013779 -.00000023  00000-0  10000-3 0  9992
2 36401  65.6766  46.0305 0004923  70.0975  78.1113  2.13102042 68589
COSMOS 2460 (732)       
1 36402U 10007C   18356.97448218 -.00000022  00000-0  10000-3 0  9998
2 36402  65.6664  46.0135 0001729 238.0234 305.5521  2.13101555 68570
COSMOS 2464 (736)       
1 37139U 10041C   18356.61705693 -.00000001  00000-0  00000-0 0  9991
2 37139  64.4064 284.7600 0024763   7.8719 208.7704  2.13102766 64635
COSMOS 2471 (701K)      
1 37372U 11009A   18356.68059229 -.00000022  00000-0  00000+0 0  9991
2 37372  65.6618  45.9677 0009876 232.1394 234.0241  2.13107660 60848
COSMOS 2474 (742)       
1 37829U 11055A   18357.28193634  .00000087  00000-0  00000+0 0  9995
2 37829  64.5157 165.4364 0006531 235.5926 293.2786  2.13101871 56221
COSMOS 2476 (744)       
1 37867U 11064A   18357.44072329  .00000085  00000-0  00000+0 0  9990
2 37867  64.4943 165.4880 0016552 235.5847 101.1875  2.13101971 55578
COSMOS 2477 (745)       
1 37868U 11064B   18356.57865199  .00000092  00000-0  00000+0 0  9997
2 37868  64.5025 165.5674 0014190 236.3095 337.9219  2.13101779 55514
COSMOS 2475 (743)       
1 37869U 11064C   18357.29563345  .00000087  00000-0  00000+0 0  9990
2 37869  64.5101 165.5394 0017960 264.9323  96.2832  2.13102052 55542
COSMOS 2485 (747)       
1 39155U 13019A   18357.45045801  .00000086  00000-0  00000+0 0  9991
2 39155  64.6635 165.6379 0017127 230.3022 158.7682  2.13101972 44058
COSMOS 2492 (754)       
1 39620U 14012A   18357.42305302 -.00000024  00000-0  10000-3 0  9992
2 39620  65.5562  45.8581 0014191 320.6492  82.3460  2.13103450 37006
COSMOS 2500 (755)       
1 40001U 14032A   18356.73511311 -.00000022  00000-0  00000+0 0  9994
2 40001  65.4973  45.8356 0007826 214.5416 242.5038  2.13102619 35207
COSMOS 2501 (702K)      
1 40315U 14075A   18356.72748566 -.00000003  00000-0  00000+0 0  9991
2 40315  64.1309 285.9029 0015883 211.5034  39.3620  2.13098475 31606
COSMOS 2514 (751)       
1 41330U 16008A   18356.52365927 -.00000022  00000-0  00000-0 0  9993
2 41330  65.2990  45.8485 0011328 219.8643 256.2780  2.13103162 22368
COSMOS 2516 (753)       
1 41554U 16032A   18356.74684690 -.00000002  00000-0  00000-0 0  9991
2 41554  64.3524 285.8187 0012799 225.7274 312.3938  2.13101776 19974
COSMOS 2522 (752)       
1 42939U 17055A   18357.40938240  .00000000  00000-0  00000+0 0  9998
2 42939  64.5825 285.8185 0008531 254.6879 298.1634  2.13102097  9742
